0 COSMOS 2251 DEB
1 36422U 93036AZV 13288.92003731  .00004352  00000-0  77523-3 0  2236
2 36422 074.0102 025.3949 0154535 289.9925 291.1913 14.59846415231360
0 COSMOS 2251 DEB
1 36422U 93036AZV 13292.57812490  .00006822  00000-0  12097-2 0  2241
2 36422 074.0217 018.3908 0154452 281.7930 076.7898 14.59901734231903
